{"type": "FeatureCollection", "features": [ {"type": "Feature", "properties": {"norad_id": 35961, "name": "COSMOS 2251 DEB", "group": "cosmos-2251-debris", "lat": 55.81329785441205, "lon": 6.742512762262518, "alt_km": 743.5127711404002, "timestamp": "2025-12-08T08:59:01.163440+00:00", "meta": {"OBJECT_NAME": "COSMOS 2251 DEB", "OBJECT_ID": "1993-036AVB", "EPOCH": "2025-11-29T09:08:47.173056", "MEAN_MOTION": 14.05319505, "ECCENTRICITY": 0.01924432, "INCLINATION": 73.9254, "RA_OF_ASC_NODE": 227.671, "ARG_OF_PERICENTER": 163.9834, "MEAN_ANOMALY": 196.7506, "EPHEMERIS_TYPE": 0, "CLASSIFICATION_TYPE": "U", "NORAD_CAT_ID": 35961, "ELEMENT_SET_NO": 999, "REV_AT_EPOCH": 62494, "BSTAR": 0.00062484461, "MEAN_MOTION_DOT": 1.171e-05, "MEAN_MOTION_DDOT": 0}, "tle": {"line1": "1 35961U 93036AVB 25333.38110154  .00001171  00000+0  62484-3 0  9990", "line2": "2 35961  73.9254 227.6710 0192443 163.9834 196.7506 14.05319505624940"}}, "geometry": {"type": "Point", "coordinates": [6.742512762262518, 55.81329785441205]}}, {"type": "Feature", "properties": {"norad_id": 35979, "name": "COSMOS 2251 DEB", "group": "cosmos-2251-debris", "lat": 3.1193051155171276, "lon": -112.18061802279321, "alt_km": 609.2467205055491, "timestamp": "2025-12-08T08:59:01.163450+00:00", "meta": {"OBJECT_NAME": "COSMOS 2251 DEB", "OBJECT_ID": "1993-036AVV", "EPOCH": "2025-12-07T00:28:15.848832", "MEAN_MOTION": 14.74528809, "ECCENTRICITY": 0.00587537, "INCLINATION": 74.0106, "RA_OF_ASC_NODE": 249.5726, "ARG_OF_PERICENTER": 23.061, "MEAN_ANOMALY": 352.2989, "EPHEMERIS_TYPE": 0, "CLASSIFICATION_TYPE": "U", "NORAD_CAT_ID": 35979, "ELEMENT_SET_NO": 999, "REV_AT_EPOCH": 88549, "BSTAR": 0.0016160682, "MEAN_MOTION_DOT": 0.00011041, "MEAN_MOTION_DDOT": 0}, "tle": {"line1": "1 35979U 93036AVV 25341.01962788  .00011041  00000+0  16161-2 0  9993", "line2": "2 35979  74.0106 249.5726 0058753  23.0610 352.2989 14.74528809885498"}}, "geometry": {"type": "Point", "coordinates": [-112.18061802279321, 3.1193051155171276]}}, {"type": "Feature", "properties": {"norad_id": 35980, "name": "COSMOS 2251 DEB", "group": "cosmos-2251-debris", "lat": 54.32702921861009, "lon": -72.6393980072239, "alt_km": 720.8082186574911, "timestamp": "2025-12-08T08:59:01.163460+00:00", "meta": {"OBJECT_NAME": "COSMOS 2251 DEB", "OBJECT_ID": "1993-036AVW", "EPOCH": "2025-12-02T19:08:08.015136", "MEAN_MOTION": 14.59062146, "ECCENTRICITY": 0.00537712, "INCLINATION": 73.91, "RA_OF_ASC_NODE": 141.7735, "ARG_OF_PERICENTER": 277.5645, "MEAN_ANOMALY": 81.9413, "EPHEMERIS_TYPE": 0, "CLASSIFICATION_TYPE": "U", "NORAD_CAT_ID": 35980, "ELEMENT_SET_NO": 999, "REV_AT_EPOCH": 61341, "BSTAR": 0.002036555, "MEAN_MOTION_DOT": 9.752e-05, "MEAN_MOTION_DDOT": 0}, "tle": {"line1": "1 35980U 93036AVW 25336.79731499  .00009752  00000+0  20366-2 0  9995", "line2": "2 35980  73.9100 141.7735 0053771 277.5645  81.9413 14.59062146613413"}}, "geometry": {"type": "Point", "coordinates": [-72.6393980072239, 54.32702921861009]}}, {"type": "Feature", "properties": {"norad_id": 35982, "name": "COSMOS 2251 DEB", "group": "cosmos-2251-debris", "lat": -8.210821682943092, "lon": -7.077465650420904, "alt_km": 673.3708448506095, "timestamp": "2025-12-08T08:59:01.163470+00:00", "meta": {"OBJECT_NAME": "COSMOS 2251 DEB", "OBJECT_ID": "1993-036AVY", "EPOCH": "2025-12-07T18:14:57.344352", "MEAN_MOTION": 14.62710072, "ECCENTRICITY": 0.00640498, "INCLINATION": 74.0587, "RA_OF_ASC_NODE": 356.4608, "ARG_OF_PERICENTER": 64.299, "MEAN_ANOMALY": 296.4771, "EPHEMERIS_TYPE": 0, "CLASSIFICATION_TYPE": "U", "NORAD_CAT_ID": 35982, "ELEMENT_SET_NO": 999, "REV_AT_EPOCH": 86093, "BSTAR": 0.00089150041, "MEAN_MOTION_DOT": 4.649e-05, "MEAN_MOTION_DDOT": 0}, "tle": {"line1": "1 35982U 93036AVY 25341.76038593  .00004649  00000+0  89150-3 0  9992", "line2": "2 35982  74.0587 356.4608 0064049  64.2990 296.4771 14.62710072860937"}}, "geometry": {"type": "Point", "coordinates": [-7.077465650420904, -8.210821682943092]}}, {"type": "Feature", "properties": {"norad_id": 35987, "name": "COSMOS 2251 DEB", "group": "cosmos-2251-debris", "lat": -62.02998427927724, "lon": -57.938208654398764, "alt_km": 787.2074600230617, "timestamp": "2025-12-08T08:59:01.163481+00:00", "meta": {"OBJECT_NAME": "COSMOS 2251 DEB", "OBJECT_ID": "1993-036AWD", "EPOCH": "2025-12-07T23:18:42.082560", "MEAN_MOTION": 14.43079355, "ECCENTRICITY": 0.00459181, "INCLINATION": 73.9994, "RA_OF_ASC_NODE": 335.5186, "ARG_OF_PERICENTER": 102.5621, "MEAN_ANOMALY": 258.0677, "EPHEMERIS_TYPE": 0, "CLASSIFICATION_TYPE": "U", "NORAD_CAT_ID": 35987, "ELEMENT_SET_NO": 999, "REV_AT_EPOCH": 60996, "BSTAR": 0.0013178192, "MEAN_MOTION_DOT": 4.453e-05, "MEAN_MOTION_DDOT": 0}, "tle": {"line1": "1 35987U 93036AWD 25341.97132040  .00004453  00000+0  13178-2 0  9991", "line2": "2 35987  73.9994 335.5186 0045918 102.5621 258.0677 14.43079355609966"}}, "geometry": {"type": "Point", "coordinates": [-57.938208654398764, -62.02998427927724]}}, {"type": "Feature", "properties": {"norad_id": 35989, "name": "COSMOS 2251 DEB", "group": "cosmos-2251-debris", "lat": 66.75920271523235, "lon": -26.345856503063473, "alt_km": 752.9614370803774, "timestamp": "2025-12-08T08:59:01.163491+00:00", "meta": {"OBJECT_NAME": "COSMOS 2251 DEB", "OBJECT_ID": "1993-036AWF", "EPOCH": "2025-12-06T04:51:17.856864", "MEAN_MOTION": 14.37086268, "ECCENTRICITY": 0.00218316, "INCLINATION": 74.0371, "RA_OF_ASC_NODE": 295.8482, "ARG_OF_PERICENTER": 19.4894, "MEAN_ANOMALY": 340.7089, "EPHEMERIS_TYPE": 0, "CLASSIFICATION_TYPE": "U", "NORAD_CAT_ID": 35989, "ELEMENT_SET_NO": 999, "REV_AT_EPOCH": 87085, "BSTAR": 0.00043011654, "MEAN_MOTION_DOT": 1.255e-05, "MEAN_MOTION_DDOT": 0}, "tle": {"line1": "1 35989U 93036AWF 25340.20229001  .00001255  00000+0  43012-3 0  9990", "line2": "2 35989  74.0371 295.8482 0021831  19.4894 340.7089 14.37086268870850"}}, "geometry": {"type": "Point", "coordinates": [-26.345856503063473, 66.75920271523235]}}, {"type": "Feature", "properties": {"norad_id": 35993, "name": "COSMOS 2251 DEB", "group": "cosmos-2251-debris", "lat": -46.64157508838838, "lon": 178.88320501217453, "alt_km": 671.3485964791198, "timestamp": "2025-12-08T08:59:01.163501+00:00", "meta": {"OBJECT_NAME": "COSMOS 2251 DEB", "OBJECT_ID": "1993-036AWK", "EPOCH": "2025-12-06T18:15:16.240032", "MEAN_MOTION": 14.6523351, "ECCENTRICITY": 0.00292405, "INCLINATION": 74.0149, "RA_OF_ASC_NODE": 344.3189, "ARG_OF_PERICENTER": 175.7917, "MEAN_ANOMALY": 184.3503, "EPHEMERIS_TYPE": 0, "CLASSIFICATION_TYPE": "U", "NORAD_CAT_ID": 35993, "ELEMENT_SET_NO": 999, "REV_AT_EPOCH": 60355, "BSTAR": 0.0012689745, "MEAN_MOTION_DOT": 6.854e-05, "MEAN_MOTION_DDOT": 0}, "tle": {"line1": "1 35993U 93036AWK 25340.76060463  .00006854  00000+0  12690-2 0  9998", "line2": "2 35993  74.0149 344.3189 0029240 175.7917 184.3503 14.65233510603555"}}, "geometry": {"type": "Point", "coordinates": [178.88320501217453, -46.64157508838838]}}, {"type": "Feature", "properties": {"norad_id": 35996, "name": "COSMOS 2251 DEB", "group": "cosmos-2251-debris", "lat": -12.148225013216615, "lon": 108.89365993198247, "alt_km": 592.4539757335469, "timestamp": "2025-12-08T08:59:01.163511+00:00", "meta": {"OBJECT_NAME": "COSMOS 2251 DEB", "OBJECT_ID": "1993-036AWN", "EPOCH": "2025-12-06T15:40:07.668192", "MEAN_MOTION": 15.08900528, "ECCENTRICITY": 0.00890114, "INCLINATION": 74.0155, "RA_OF_ASC_NODE": 115.9821, "ARG_OF_PERICENTER": 208.3907, "MEAN_ANOMALY": 151.2421, "EPHEMERIS_TYPE": 0, "CLASSIFICATION_TYPE": "U", "NORAD_CAT_ID": 35996, "ELEMENT_SET_NO": 999, "REV_AT_EPOCH": 72234, "BSTAR": 0.001269926, "MEAN_MOTION_DOT": 0.00021998, "MEAN_MOTION_DDOT": 0}, "tle": {"line1": "1 35996U 93036AWN 25340.65286653  .00021998  00000+0  12699-2 0  9995", "line2": "2 35996  74.0155 115.9821 0089011 208.3907 151.2421 15.08900528722343"}}, "geometry": {"type": "Point", "coordinates": [108.89365993198247, -12.148225013216615]}}, {"type": "Feature", "properties": {"norad_id": 35997, "name": "COSMOS 2251 DEB", "group": "cosmos-2251-debris", "lat": -73.14125295372985, "lon": 86.26356097409345, "alt_km": 717.2104804557348, "timestamp": "2025-12-08T08:59:01.163521+00:00", "meta": {"OBJECT_NAME": "COSMOS 2251 DEB", "OBJECT_ID": "1993-036AWP", "EPOCH": "2025-12-02T07:50:00.553056", "MEAN_MOTION": 14.51236016, "ECCENTRICITY": 0.00159085, "INCLINATION": 74.0439, "RA_OF_ASC_NODE": 206.8774, "ARG_OF_PERICENTER": 283.0639, "MEAN_ANOMALY": 76.8746, "EPHEMERIS_TYPE": 0, "CLASSIFICATION_TYPE": "U", "NORAD_CAT_ID": 35997, "ELEMENT_SET_NO": 999, "REV_AT_EPOCH": 70733, "BSTAR": 0.00076938672, "MEAN_MOTION_DOT": 3.037e-05, "MEAN_MOTION_DDOT": 0}, "tle": {"line1": "1 35997U 93036AWP 25336.32639529  .00003037  00000+0  76939-3 0  9991", "line2": "2 35997  74.0439 206.8774 0015908 283.0639  76.8746 14.51236016707337"}}, "geometry": {"type": "Point", "coordinates": [86.26356097409345, -73.14125295372985]}}, {"type": "Feature", "properties": {"norad_id": 36005, "name": "COSMOS 2251 DEB", "group": "cosmos-2251-debris", "lat": -1.3831704127505315, "lon": 101.77718545019079, "alt_km": 757.8326597665482, "timestamp": "2025-12-08T08:59:01.163532+00:00", "meta": {"OBJECT_NAME": "COSMOS 2251 DEB", "OBJECT_ID": "1993-036AWX", "EPOCH": "2025-12-07T18:03:37.308096", "MEAN_MOTION": 14.47345623, "ECCENTRICITY": 0.00620427, "INCLINATION": 74.0263, "RA_OF_ASC_NODE": 103.3364, "ARG_OF_PERICENTER": 241.7009, "MEAN_ANOMALY": 117.7882, "EPHEMERIS_TYPE": 0, "CLASSIFICATION_TYPE": "U", "NORAD_CAT_ID": 36005, "ELEMENT_SET_NO": 999, "REV_AT_EPOCH": 87512, "BSTAR": 0.00039974539, "MEAN_MOTION_DOT": 1.471e-05, "MEAN_MOTION_DDOT": 0}, "tle": {"line1": "1 36005U 93036AWX 25341.75251514  .00001471  00000+0  39975-3 0  9998", "line2": "2 36005  74.0263 103.3364 0062042 241.7009 117.7882 14.47345623875121"}}, "geometry": {"type": "Point", "coordinates": [101.77718545019079, -1.3831704127505315]}}]}